{
  "constellation": "oneweb",
  "timestamp": "2025-07-21T05:06:13.717346+00:00",
  "satellite_count": 651,
  "data": [
    {
      "satellite_name": "ONEWEB-0026",
      "catalog_number": 45139,
      "epoch_year": 2025,
      "epoch_day": 201.42018722,
      "first_derivative": -2.25e-06,
      "second_derivative": 0.0,
      "drag_term": -0.0006716900000000001,
      "inclination": 87.8827,
      "right_ascension": 87.1943,
      "eccentricity": 0.000183,
      "argument_of_perigee": 72.144,
      "mean_anomaly": 287.9887,
      "mean_motion": 13.11419001,
      "revolution_number": 26762,
      "line1": "1 45139U 20008J   25201.42018722 -.00000225  00000+0 -67169-3 0  9990",
      "line2": "2 45139  87.8827  87.1943 0001830  72.1440 287.9887 13.11419001267629",
      "last_updated": "2025-07-21T05:06:13.713760+00:00",
      "constellation": "oneweb"
    },
    {
      "satellite_name": "ONEWEB-0028",
      "catalog_number": 45140,
      "epoch_year": 2025,
      "epoch_day": 201.37697208,
      "first_derivative": 2.89e-06,
      "second_derivative": 0.0,
      "drag_term": 0.0,
      "inclination": 87.8816,
      "right_ascension": 87.2256,
      "eccentricity": 0.0001967,
      "argument_of_perigee": 98.4441,
      "mean_anomaly": 261.691,
      "mean_motion": 13.11414934,
      "revolution_number": 26513,
      "line1": "1 45140U 20008K   25201.37697208  .00000289  00000+0  78090-3 0  9991",
      "line2": "2 45140  87.8816  87.2256 0001967  98.4441 261.6910 13.11414934265130",
      "last_updated": "2025-07-21T05:06:13.713763+00:00",
      "constellation": "oneweb"
    },
    {
      "satellite_name": "ONEWEB-0032",
      "catalog_number": 45141,
      "epoch_year": 2025,
      "epoch_day": 201.4571144,
      "first_derivative": -4.38e-06,
      "second_derivative": 0.0,
      "drag_term": -0.0012900000000000001,
      "inclination": 87.8816,
      "right_ascension": 102.441,
      "eccentricity": 0.0001885,
      "argument_of_perigee": 82.2554,
      "mean_anomaly": 277.8788,
      "mean_motion": 13.1037533,
      "revolution_number": 26485,
      "line1": "1 45141U 20008L   25201.45711440 -.00000438  00000+0 -12900-2 0  9991",
      "line2": "2 45141  87.8816 102.4410 0001885  82.2554 277.8788 13.10375330264853",
      "last_updated": "2025-07-21T05:06:13.713766+00:00",
      "constellation": "oneweb"
    },
    {
      "satellite_name": "ONEWEB-0033",
      "catalog_number": 45142,
      "epoch_year": 2025,
      "epoch_day": 201.43221569,
      "first_derivative": -2.74e-06,
      "second_derivative": 0.0,
      "drag_term": -0.00081992,
      "inclination": 87.8807,
      "right_ascension": 102.4578,
      "eccentricity": 0.0001968,
      "argument_of_perigee": 72.3224,
      "mean_anomaly": 287.8118,
      "mean_motion": 13.10370372,
      "revolution_number": 26476,
      "line1": "1 45142U 20008M   25201.43221569 -.00000274  00000+0 -81992-3 0  9994",
      "line2": "2 45142  87.8807 102.4578 0001968  72.3224 287.8118 13.10370372264764",
      "last_updated": "2025-07-21T05:06:13.713768+00:00",
      "constellation": "oneweb"
    },
    {
      "satellite_name": "ONEWEB-0035",
      "catalog_number": 45143,
      "epoch_year": 2025,
      "epoch_day": 201.23385014,
      "first_derivative": -2.7e-07,
      "second_derivative": 0.0,
      "drag_term": -0.00011391,
      "inclination": 87.8816,
      "right_ascension": 102.499,
      "eccentricity": 0.0001933,
      "argument_of_perigee": 73.1007,
      "mean_anomaly": 287.0332,
      "mean_motion": 13.10377386,
      "revolution_number": 26446,
      "line1": "1 45143U 20008N   25201.23385014 -.00000027  00000+0 -11391-3 0  9991",
      "line2": "2 45143  87.8816 102.4990 0001933  73.1007 287.0332 13.10377386264462",
      "last_updated": "2025-07-21T05:06:13.713771+00:00",
      "constellation": "oneweb"
    },
    {
      "satellite_name": "ONEWEB-0036",
      "catalog_number": 45144,
      "epoch_year": 2025,
      "epoch_day": 201.45298164,
      "first_derivative": 1.298e-05,
      "second_derivative": 0.0,
      "drag_term": 0.0,
      "inclination": 87.882,
      "right_ascension": 102.3967,
      "eccentricity": 0.0001636,
      "argument_of_perigee": 84.7893,
      "mean_anomaly": 275.3421,
      "mean_motion": 13.1036956,
      "revolution_number": 26492,
      "line1": "1 45144U 20008P   25201.45298164  .00001298  00000+0  36828-2 0  9995",
      "line2": "2 45144  87.8820 102.3967 0001636  84.7893 275.3421 13.10369560264927",
      "last_updated": "2025-07-21T05:06:13.713773+00:00",
      "constellation": "oneweb"
    },
    {
      "satellite_name": "ONEWEB-0038",
      "catalog_number": 45145,
      "epoch_year": 2025,
      "epoch_day": 201.20163287,
      "first_derivative": 4.07e-06,
      "second_derivative": 0.0,
      "drag_term": 0.0,
      "inclination": 87.8831,
      "right_ascension": 87.231,
      "eccentricity": 0.0003619,
      "argument_of_perigee": 83.2368,
      "mean_anomaly": 276.9172,
      "mean_motion": 13.11416898,
      "revolution_number": 26681,
      "line1": "1 45145U 20008Q   25201.20163287  .00000407  00000+0  11130-2 0  9996",
      "line2": "2 45145  87.8831  87.2310 0003619  83.2368 276.9172 13.11416898266815",
      "last_updated": "2025-07-21T05:06:13.713776+00:00",
      "constellation": "oneweb"
    },
    {
      "satellite_name": "ONEWEB-0039",
      "catalog_number": 45146,
      "epoch_year": 2025,
      "epoch_day": 201.4355812,
      "first_derivative": -4.07e-06,
      "second_derivative": 0.0,
      "drag_term": -0.0012012000000000001,
      "inclination": 87.8813,
      "right_ascension": 102.4237,
      "eccentricity": 0.0002067,
      "argument_of_perigee": 91.7564,
      "mean_anomaly": 268.38,
      "mean_motion": 13.10377483,
      "revolution_number": 26471,
      "line1": "1 45146U 20008R   25201.43558120 -.00000407  00000+0 -12012-2 0  9998",
      "line2": "2 45146  87.8813 102.4237 0002067  91.7564 268.3800 13.10377483264717",
      "last_updated": "2025-07-21T05:06:13.713778+00:00",
      "constellation": "oneweb"
    },
    {
      "satellite_name": "ONEWEB-0040",
      "catalog_number": 45147,
      "epoch_year": 2025,
      "epoch_day": 201.42889243,
      "first_derivative": -9e-07,
      "second_derivative": 0.0,
      "drag_term": -0.00029388,
      "inclination": 87.8817,
      "right_ascension": 102.4522,
      "eccentricity": 0.0001854,
      "argument_of_perigee": 78.0934,
      "mean_anomaly": 282.0401,
      "mean_motion": 13.10371122,
      "revolution_number": 26441,
      "line1": "1 45147U 20008S   25201.42889243 -.00000090  00000+0 -29388-3 0  9994",
      "line2": "2 45147  87.8817 102.4522 0001854  78.0934 282.0401 13.10371122264412",
      "last_updated": "2025-07-21T05:06:13.713781+00:00",
      "constellation": "oneweb"
    },
    {
      "satellite_name": "ONEWEB-0043",
      "catalog_number": 45149,
      "epoch_year": 2025,
      "epoch_day": 201.27783186,
      "first_derivative": -2.07e-06,
      "second_derivative": 0.0,
      "drag_term": -0.0006280200000000001,
      "inclination": 87.8811,
      "right_ascension": 102.4676,
      "eccentricity": 0.0001708,
      "argument_of_perigee": 91.0768,
      "mean_anomaly": 269.0555,
      "mean_motion": 13.10371587,
      "revolution_number": 26471,
      "line1": "1 45149U 20008U   25201.27783186 -.00000207  00000+0 -62802-3 0  9996",
      "line2": "2 45149  87.8811 102.4676 0001708  91.0768 269.0555 13.10371587264719",
      "last_updated": "2025-07-21T05:06:13.713783+00:00",
      "constellation": "oneweb"
    },
    {
      "satellite_name": "ONEWEB-0044",
      "catalog_number": 45150,
      "epoch_year": 2025,
      "epoch_day": 201.45877782,
      "first_derivative": -2.77e-06,
      "second_derivative": 0.0,
      "drag_term": -0.00082852,
      "inclination": 87.8819,
      "right_ascension": 102.4231,
      "eccentricity": 0.0001788,
      "argument_of_perigee": 84.2954,
      "mean_anomaly": 275.8377,
      "mean_motion": 13.10375621,
      "revolution_number": 26503,
      "line1": "1 45150U 20008V   25201.45877782 -.00000277  00000+0 -82852-3 0  9998",
      "line2": "2 45150  87.8819 102.4231 0001788  84.2954 275.8377 13.10375621265031",
      "last_updated": "2025-07-21T05:06:13.713786+00:00",
      "constellation": "oneweb"
    },
    {
      "satellite_name": "ONEWEB-0045",
      "catalog_number": 45151,
      "epoch_year": 2025,
      "epoch_day": 201.42527762,
      "first_derivative": -8.2e-07,
      "second_derivative": 0.0,
      "drag_term": -0.00026666,
      "inclination": 87.8827,
      "right_ascension": 87.1597,
      "eccentricity": 0.0001932,
      "argument_of_perigee": 79.5664,
      "mean_anomaly": 280.5681,
      "mean_motion": 13.11419239,
      "revolution_number": 26692,
      "line1": "1 45151U 20008W   25201.42527762 -.00000082  00000+0 -26666-3 0  9991",
      "line2": "2 45151  87.8827  87.1597 0001932  79.5664 280.5681 13.11419239266926",
      "last_updated": "2025-07-21T05:06:13.713789+00:00",
      "constellation": "oneweb"
    },
    {
      "satellite_name": "ONEWEB-0047",
      "catalog_number": 45152,
      "epoch_year": 2025,
      "epoch_day": 201.45212658,
      "first_derivative": -5.29e-06,
      "second_derivative": 0.0,
      "drag_term": -0.0015514,
      "inclination": 87.8819,
      "right_ascension": 102.4338,
      "eccentricity": 0.0001867,
      "argument_of_perigee": 79.722,
      "mean_anomaly": 280.4118,
      "mean_motion": 13.10375977,
      "revolution_number": 26475,
      "line1": "1 45152U 20008X   25201.45212658 -.00000529  00000+0 -15514-2 0  9995",
      "line2": "2 45152  87.8819 102.4338 0001867  79.7220 280.4118 13.10375977264751",
      "last_updated": "2025-07-21T05:06:13.713791+00:00",
      "constellation": "oneweb"
    }
  ]
}